IRIDIUM 126             
1 42809U 17039G   24015.46058941  .00000029  00000+0  32996-5 0  9996
2 42809  86.3977   2.9536 0002410  82.7364 277.4106 14.34218078343282
IRIDIUM 124             
1 42810U 17039H   24015.29217135  .00000966  00000+0  28126-3 0  9999
2 42810  86.4502 299.7808 0001886  83.2807 276.8608 14.43285575347629
IRIDIUM 128             
1 42811U 17039J   24015.59086097  .00000015  00000+0 -18101-5 0  9994
2 42811  86.3953  34.4132 0002217  85.5002 274.6447 14.34215656343338
IRIDIUM 121             
1 42812U 17039K   24015.47961771 -.00000106  00000+0 -44739-4 0  9990
2 42812  86.3973   2.9676 0002121  86.4663 273.6775 14.34217705343162
IRIDIUM 133             
1 42955U 17061A   24015.55280833  .00000483  00000+0  16534-3 0  9992
2 42955  86.3954  34.5253 0002320  89.5152 270.6309 14.34215552328126
IRIDIUM 100             
1 42956U 17061B   24015.54645919  .00000487  00000+0  16676-3 0  9993
2 42956  86.3952  34.4675 0002166  89.1081 271.0363 14.34213547328124
IRIDIUM 122             
1 42957U 17061C   24015.58451620  .00000485  00000+0  16612-3 0  9990
2 42957  86.3952  34.4492 0002160  85.1047 275.0395 14.34217965328132
IRIDIUM 129             
1 42958U 17061D   24015.54012466  .00000074  00000+0  19489-4 0  9998
2 42958  86.3953  34.5260 0002290  87.1394 273.0064 14.34215001328140
